IRIDIUM 57 [-]          
1 25273U 98019B   23309.21146157  .00000796  00000+0  27296-3 0  9990
2 25273  86.4006  32.3093 0002108  93.1051 267.0387 14.34969203340365
IRIDIUM 63 [-]          
1 25286U 98021B   23308.75968590  .00000645  00000+0  21759-3 0  9999
2 25286  86.3972 329.4607 0002281  87.2987 272.8470 14.35471338339111
IRIDIUM 69 [-]          
1 25319U 98026A   23308.85948238  .00000796  00000+0  24846-3 0  9996
2 25319  86.3998 344.4565 0003499 131.3920 228.7580 14.39648414338099
IRIDIUM 71 [-]          
1 25320U 98026B   23308.84047071  .00000580  00000+0  17818-3 0  9994
2 25320  86.3982 339.2889 0001434 159.6389 200.4867 14.39978193338606
IRIDIUM 73 [-]          
1 25344U 98032C   23308.89751302  .00001081  00000+0  27357-3 0  9997
2 25344  86.4371 297.0432 0002368 105.8516 254.2950 14.50106000344972
IRIDIUM 82 [-]          
1 25467U 98051A   23308.94044583  .00015013  00000+0  87623-3 0  9998
2 25467  86.3985  31.7527 0143211 324.4107  34.7638 15.03467558334570
IRIDIUM 2 [-]           
1 25527U 98066A   23308.88211132  .00063856  00000+0  13933-2 0  9990
2 25527  85.5164  85.7063 0005137 109.4806 250.7004 15.43965013372800
